HULIANWANG DIGUI-60     
1 65166U 25174C   26195.17682087  .00000049  00000+0  80440-4 0  9997
2 65166  86.4940 242.8874 0001827 102.2614 257.8724 13.24406914 44362
HULIANWANG DIGUI-61     
1 65167U 25174D   26195.18439487  .00000038  00000+0  54984-4 0  9995
2 65167  86.4948 242.9182 0001656  99.9841 260.1480 13.24407556 44367
HULIANWANG DIGUI-62     
1 65168U 25174E   26195.19183348  .00000032  00000+0  39741-4 0  9997
2 65168  86.4890 242.7313 0001725 104.6292 255.5033 13.24409131 44362
HULIANWANG DIGUI-63     
1 65169U 25174F   26195.19930922  .00000023  00000+0  19772-4 0  9998
2 65169  86.4942 242.9045 0001621 104.0798 256.0516 13.24403405 44365
HULIANWANG DIGUI-64     
1 65170U 25174G   26195.13148051  .00000043  00000+0  65341-4 0  9993
2 65170  86.4901 242.8010 0001789 104.0156 256.1177 13.24407378 44352
HULIANWANG DIGUI-65     
1 65171U 25174H   26195.14653926  .00000061  00000+0  10694-3 0  9997
2 65171  86.4864 242.6893 0001705  98.9090 261.2237 13.24407366 44355
HULIANWANG DIGUI-66     
1 65172U 25174J   26195.13902645  .00000048  00000+0  78854-4 0  9990
2 65172  86.4899 242.8023 0001821 102.2882 257.8455 13.24407028 44356
HULIANWANG DIGUI-67     
1 65173U 25174K   26195.15410463  .00000069  00000+0  12680-3 0  9992
2 65173  86.4911 242.8454 0001807 100.2586 259.8752 13.24408539 44320
HULIANWANG DIGUI-68     
1 65228U 25178A   26195.17665318  .00000039  00000+0  56871-4 0  9998
2 65228  86.4986   4.4119 0002013  91.6764 268.4601 13.24411232 43887
HULIANWANG DIGUI-69     
1 65229U 25178B   26195.16921125  .00000022  00000+0  16777-4 0  9992
2 65229  86.5006   4.4747 0001919  91.9497 268.1856 13.24412621 43881
HULIANWANG DIGUI-70     
1 65230U 25178C   26195.16164846  .00000010  00000+0 -11833-4 0  9999
2 65230  86.4945   4.2688 0002018  90.2981 269.8384 13.24411755 43888
HULIANWANG DIGUI-71     
1 65231U 25178D   26195.15410964  .00000006  00000+0 -20805-4 0  9998
2 65231  86.5004   4.4595 0001994  90.8270 269.3092 13.24411476 43885
HULIANWANG DIGUI-72     
1 65232U 25178E   26195.14655510  .00000000  00000+0 -34961-4 0  9998
2 65232  86.4987   4.3988 0002001  91.1107 269.0257 13.24410958 43887
HULIANWANG DIGUI-73     
1 65305U 25187A   26195.12678293 -.00000102  00000+0  46573-4 0  9995
2 65305  50.0050 109.2625 0000134 306.9493  53.1367 13.29323440 43281
HULIANWANG DIGUI-74     
1 65306U 25187B   26195.18534455 -.00000105  00000+0  40411-4 0  9991
2 65306  50.0093 109.0139 0000155 301.4340  58.6517 13.29321540 43298
HULIANWANG DIGUI-75     
1 65307U 25187C   26195.16865619 -.00000109  00000+0  32554-4 0  9992
2 65307  50.0084 108.9077 0000139 310.4342  49.6519 13.29322804 43298
