{"fetched_at":"2026-07-14T17:40:48.257Z","source":"https://celestrak.org/NORAD/elements/gp.php?NAME=HULIANWANG&FORMAT=JSON","constellation":"guowang","records":[{"OBJECT_NAME":"HULIANWANG DIGUI-60","OBJECT_ID":"2025-174C","EPOCH":"2026-07-14T04:14:37.323168","CLASSIFICATION_TYPE":"U","MEAN_MOTION":13.24406914,"ECCENTRICITY":0.0001827,"INCLINATION":86.494,"RA_OF_ASC_NODE":242.8874,"ARG_OF_PERICENTER":102.2614,"MEAN_ANOMALY":257.8724,"EPHEMERIS_TYPE":0,"NORAD_CAT_ID":65166,"ELEMENT_SET_NO":999,"REV_AT_EPOCH":4436,"BSTAR":0.00008044,"MEAN_MOTION_DOT":4.9e-7,"MEAN_MOTION_DDOT":0},{"OBJECT_NAME":"HULIANWANG DIGUI-61","OBJECT_ID":"2025-174D","EPOCH":"2026-07-14T04:25:31.716768","CLASSIFICATION_TYPE":"U","MEAN_MOTION":13.24407556,"ECCENTRICITY":0.0001656,"INCLINATION":86.4948,"RA_OF_ASC_NODE":242.9182,"ARG_OF_PERICENTER":99.9841,"MEAN_ANOMALY":260.148,"EPHEMERIS_TYPE":0,"NORAD_CAT_ID":65167,"ELEMENT_SET_NO":999,"REV_AT_EPOCH":4436,"BSTAR":0.000054984,"MEAN_MOTION_DOT":3.8e-7,"MEAN_MOTION_DDOT":0},{"OBJECT_NAME":"HULIANWANG DIGUI-62","OBJECT_ID":"2025-174E","EPOCH":"2026-07-14T04:36:14.412672","CLASSIFICATION_TYPE":"U","MEAN_MOTION":13.24409131,"ECCENTRICITY":0.0001725,"INCLINATION":86.489,"RA_OF_ASC_NODE":242.7313,"ARG_OF_PERICENTER":104.6292,"MEAN_ANOMALY":255.5033,"EPHEMERIS_TYPE":0,"NORAD_CAT_ID":65168,"ELEMENT_SET_NO":999,"REV_AT_EPOCH":4436,"BSTAR":0.000039741,"MEAN_MOTION_DOT":3.2e-7,"MEAN_MOTION_DDOT":0},{"OBJECT_NAME":"HULIANWANG DIGUI-63","OBJECT_ID":"2025-174F","EPOCH":"2026-07-14T04:47:00.316608","CLASSIFICATION_TYPE":"U","MEAN_MOTION":13.24403405,"ECCENTRICITY":0.0001621,"INCLINATION":86.4942,"RA_OF_ASC_NODE":242.9045,"ARG_OF_PERICENTER":104.0798,"MEAN_ANOMALY":256.0516,"EPHEMERIS_TYPE":0,"NORAD_CAT_ID":65169,"ELEMENT_SET_NO":999,"REV_AT_EPOCH":4436,"BSTAR":0.000019772,"MEAN_MOTION_DOT":2.3e-7,"MEAN_MOTION_DDOT":0},{"OBJECT_NAME":"HULIANWANG DIGUI-64","OBJECT_ID":"2025-174G","EPOCH":"2026-07-14T03:09:19.916064","CLASSIFICATION_TYPE":"U","MEAN_MOTION":13.24407378,"ECCENTRICITY":0.0001789,"INCLINATION":86.4901,"RA_OF_ASC_NODE":242.801,"ARG_OF_PERICENTER":104.0156,"MEAN_ANOMALY":256.1177,"EPHEMERIS_TYPE":0,"NORAD_CAT_ID":65170,"ELEMENT_SET_NO":999,"REV_AT_EPOCH":4435,"BSTAR":0.000065341,"MEAN_MOTION_DOT":4.3e-7,"MEAN_MOTION_DDOT":0},{"OBJECT_NAME":"HULIANWANG DIGUI-65","OBJECT_ID":"2025-174H","EPOCH":"2026-07-14T03:31:00.992064","CLASSIFICATION_TYPE":"U","MEAN_MOTION":13.24407366,"ECCENTRICITY":0.0001705,"INCLINATION":86.4864,"RA_OF_ASC_NODE":242.6893,"ARG_OF_PERICENTER":98.909,"MEAN_ANOMALY":261.2237,"EPHEMERIS_TYPE":0,"NORAD_CAT_ID":65171,"ELEMENT_SET_NO":999,"REV_AT_EPOCH":4435,"BSTAR":0.00010694,"MEAN_MOTION_DOT":6.1e-7,"MEAN_MOTION_DDOT":0},{"OBJECT_NAME":"HULIANWANG DIGUI-66","OBJECT_ID":"2025-174J","EPOCH":"2026-07-14T03:20:11.885280","CLASSIFICATION_TYPE":"U","MEAN_MOTION":13.24407028,"ECCENTRICITY":0.0001821,"INCLINATION":86.4899,"RA_OF_ASC_NODE":242.8023,"ARG_OF_PERICENTER":102.2882,"MEAN_ANOMALY":257.8455,"EPHEMERIS_TYPE":0,"NORAD_CAT_ID":65172,"ELEMENT_SET_NO":999,"REV_AT_EPOCH":4435,"BSTAR":0.000078854,"MEAN_MOTION_DOT":4.8e-7,"MEAN_MOTION_DDOT":0},{"OBJECT_NAME":"HULIANWANG DIGUI-67","OBJECT_ID":"2025-174K","EPOCH":"2026-07-14T03:41:54.640032","CLASSIFICATION_TYPE":"U","MEAN_MOTION":13.24408539,"ECCENTRICITY":0.0001807,"INCLINATION":86.4911,"RA_OF_ASC_NODE":242.8454,"ARG_OF_PERICENTER":100.2586,"MEAN_ANOMALY":259.8752,"EPHEMERIS_TYPE":0,"NORAD_CAT_ID":65173,"ELEMENT_SET_NO":999,"REV_AT_EPOCH":4432,"BSTAR":0.0001268,"MEAN_MOTION_DOT":6.9e-7,"MEAN_MOTION_DDOT":0},{"OBJECT_NAME":"HULIANWANG DIGUI-68","OBJECT_ID":"2025-178A","EPOCH":"2026-07-14T04:14:22.834752","CLASSIFICATION_TYPE":"U","MEAN_MOTION":13.24411232,"ECCENTRICITY":0.0002013,"INCLINATION":86.4986,"RA_OF_ASC_NODE":4.4119,"ARG_OF_PERICENTER":91.6764,"MEAN_ANOMALY":268.4601,"EPHEMERIS_TYPE":0,"NORAD_CAT_ID":65228,"ELEMENT_SET_NO":999,"REV_AT_EPOCH":4388,"BSTAR":0.000056871,"MEAN_MOTION_DOT":3.9e-7,"MEAN_MOTION_DDOT":0},{"OBJECT_NAME":"HULIANWANG DIGUI-69","OBJECT_ID":"2025-178B","EPOCH":"2026-07-14T04:03:39.852000","CLASSIFICATION_TYPE":"U","MEAN_MOTION":13.24412621,"ECCENTRICITY":0.0001919,"INCLINATION":86.5006,"RA_OF_ASC_NODE":4.4747,"ARG_OF_PERICENTER":91.9497,"MEAN_ANOMALY":268.1856,"EPHEMERIS_TYPE":0,"NORAD_CAT_ID":65229,"ELEMENT_SET_NO":999,"REV_AT_EPOCH":4388,"BSTAR":0.000016777,"MEAN_MOTION_DOT":2.2e-7,"MEAN_MOTION_DDOT":0},{"OBJECT_NAME":"HULIANWANG DIGUI-70","OBJECT_ID":"2025-178C","EPOCH":"2026-07-14T03:52:46.426944","CLASSIFICATION_TYPE":"U","MEAN_MOTION":13.24411755,"ECCENTRICITY":0.0002018,"INCLINATION":86.4945,"RA_OF_ASC_NODE":4.2688,"ARG_OF_PERICENTER":90.2981,"MEAN_ANOMALY":269.8384,"EPHEMERIS_TYPE":0,"NORAD_CAT_ID":65230,"ELEMENT_SET_NO":999,"REV_AT_EPOCH":4388,"BSTAR":-0.000011833,"MEAN_MOTION_DOT":1e-7,"MEAN_MOTION_DDOT":0},{"OBJECT_NAME":"HULIANWANG DIGUI-71","OBJECT_ID":"2025-178D","EPOCH":"2026-07-14T03:41:55.072896","CLASSIFICATION_TYPE":"U","MEAN_MOTION":13.24411476,"ECCENTRICITY":0.0001994,"INCLINATION":86.5004,"RA_OF_ASC_NODE":4.4595,"ARG_OF_PERICENTER":90.827,"MEAN_ANOMALY":269.3092,"EPHEMERIS_TYPE":0,"NORAD_CAT_ID":65231,"ELEMENT_SET_NO":999,"REV_AT_EPOCH":4388,"BSTAR":-0.000020805,"MEAN_MOTION_DOT":6e-8,"MEAN_MOTION_DDOT":0},{"OBJECT_NAME":"HULIANWANG DIGUI-72","OBJECT_ID":"2025-178E","EPOCH":"2026-07-14T03:31:02.360640","CLASSIFICATION_TYPE":"U","MEAN_MOTION":13.24410958,"ECCENTRICITY":0.0002001,"INCLINATION":86.4987,"RA_OF_ASC_NODE":4.3988,"ARG_OF_PERICENTER":91.1107,"MEAN_ANOMALY":269.0257,"EPHEMERIS_TYPE":0,"NORAD_CAT_ID":65232,"ELEMENT_SET_NO":999,"REV_AT_EPOCH":4388,"BSTAR":-0.000034961,"MEAN_MOTION_DOT":0,"MEAN_MOTION_DDOT":0},{"OBJECT_NAME":"HULIANWANG DIGUI-73","OBJECT_ID":"2025-187A","EPOCH":"2026-07-14T03:02:34.045152","CLASSIFICATION_TYPE":"U","MEAN_MOTION":13.2932344,"ECCENTRICITY":0.0000134,"INCLINATION":50.005,"RA_OF_ASC_NODE":109.2625,"ARG_OF_PERICENTER":306.9493,"MEAN_ANOMALY":53.1367,"EPHEMERIS_TYPE":0,"NORAD_CAT_ID":65305,"ELEMENT_SET_NO":999,"REV_AT_EPOCH":4328,"BSTAR":0.000046573,"MEAN_MOTION_DOT":-0.00000102,"MEAN_MOTION_DDOT":0},{"OBJECT_NAME":"HULIANWANG DIGUI-74","OBJECT_ID":"2025-187B","EPOCH":"2026-07-14T04:26:53.769120","CLASSIFICATION_TYPE":"U","MEAN_MOTION":13.2932154,"ECCENTRICITY":0.0000155,"INCLINATION":50.0093,"RA_OF_ASC_NODE":109.0139,"ARG_OF_PERICENTER":301.434,"MEAN_ANOMALY":58.6517,"EPHEMERIS_TYPE":0,"NORAD_CAT_ID":65306,"ELEMENT_SET_NO":999,"REV_AT_EPOCH":4329,"BSTAR":0.000040411,"MEAN_MOTION_DOT":-0.00000105,"MEAN_MOTION_DDOT":0},{"OBJECT_NAME":"HULIANWANG DIGUI-75","OBJECT_ID":"2025-187C","EPOCH":"2026-07-14T04:02:51.894816","CLASSIFICATION_TYPE":"U","MEAN_MOTION":13.29322804,"ECCENTRICITY":0.0000139,"INCLINATION":50.0084,"RA_OF_ASC_NODE":108.9077,"ARG_OF_PERICENTER":310.4342,"MEAN_ANOMALY":49.6519,"EPHEMERIS_TYPE":0,"NORAD_CAT_ID":65307,"ELEMENT_SET_NO":999,"REV_AT_EPOCH":4329,"BSTAR":0.000032554,"MEAN_MOTION_DOT":-0.00000109,"MEAN_MOTION_DDOT":0}]}
